{
  "type": "FeatureCollection",
  "note": "GROV TILNÆRMING kun for utvikling og test. Ekte geometri hentes med backend/scripts/fetch_nvdb_data.py (NVDB, NLOD-lisens).",
  "features": [
    {
      "type": "Feature",
      "properties": {"name": "Hardangervidda (Rv7, grov tilnærming)"},
      "geometry": {
        "type": "LineString",
        "coordinates": [
          [7.07, 60.47], [7.28, 60.42], [7.42, 60.38], [7.60, 60.32],
          [7.72, 60.36], [7.82, 60.44], [7.87, 60.51]
        ]
      }
    },
    {
      "type": "Feature",
      "properties": {"name": "Hardanger (grov tilnærming)"},
      "geometry": {
        "type": "LineString",
        "coordinates": [
          [6.15, 60.37], [6.34, 60.42], [6.59, 60.44], [6.85, 60.44], [7.07, 60.47]
        ]
      }
    }
  ]
}
